IRIDIUM 26              
1 24903U 97043A   26023.46909675  .00000798  00000+0  26069-3 0  9999
2 24903  86.3953  18.0152 0002413  87.0227 273.1247 14.37368833488380
IRIDIUM 22              
1 24907U 97043E   26023.51284261  .00000673  00000+0  22424-3 0  9999
2 24907  86.3952  21.7256 0002212  85.3244 274.8206 14.36157226488391
DUMMY MASS 1            
1 24925U 97048A   26023.52238053  .00000752  00000+0  80367-4 0  9992
2 24925  86.3320  33.3596 0009053  86.3631 273.8630 14.87224330537872
DUMMY MASS 2            
1 24926U 97048B   26023.52136491  .00000741  00000+0  79598-4 0  9998
2 24926  86.3318  35.0084 0009804  95.2936 264.9408 14.86974593537643
IRIDIUM 29              
1 24944U 97051A   26023.52484202  .00000693  00000+0  22872-3 0  9996
2 24944  86.3917  51.3883 0002051  89.8507 270.2925 14.36701105484902
IRIDIUM 33              
1 24946U 97051C   26023.54327649  .00000528  00000+0  17833-3 0  9999
2 24946  86.3832  50.6638 0010030  81.5122 278.7210 14.35070295484344
IRIDIUM 28              
1 24948U 97051E   26023.49891145  .00000675  00000+0  21867-3 0  9997
2 24948  86.3923  48.7893 0002771  88.5284 271.6232 14.37601619485492
IRIDIUM 36              
1 24967U 97056C   26023.42790933  .00000786  00000+0  25442-3 0  9995
2 24967  86.3932  80.4511 0002384  88.0762 272.0708 14.37829032483862
